{
  "norad_id": 63248,
  "name": "LEMUR-2-LIA-MARTIN",
  "history": [
    {
      "epoch": "2026-03-28T22:54:55.741248Z",
      "apogee_km": 579.0821039369348,
      "perigee_km": 573.0630964437769,
      "latitude_deg": -1.3568996442545421e-06,
      "longitude_deg": 171.51680356082957,
      "height_km": 579.2733667177513,
      "semi_major_axis_km": 6954.209600190356,
      "eccentricity": 0.00043276,
      "inclination_deg": 97.6982,
      "raan_deg": 341.6169,
      "arg_perigee_deg": 93.0053,
      "mean_anomaly_deg": 267.1664,
      "mean_motion_rev_day": 14.97032048
    },
    {
      "epoch": "2026-03-29T03:43:40.715904Z",
      "apogee_km": 579.063690816798,
      "perigee_km": 573.046923632588,
      "latitude_deg": 7.127701748384545e-06,
      "longitude_deg": 99.32916601856256,
      "height_km": 579.2442189390932,
      "semi_major_axis_km": 6954.192307224693,
      "eccentricity": 0.0004326,
      "inclination_deg": 97.6981,
      "raan_deg": 341.8143,
      "arg_perigee_deg": 92.7802,
      "mean_anomaly_deg": 267.3915,
      "mean_motion_rev_day": 14.97037632
    },
    {
      "epoch": "2026-03-30T05:23:40.088256Z",
      "apogee_km": 579.0426941285714,
      "perigee_km": 572.9717262330851,
      "latitude_deg": 1.3872965986100236e-05,
      "longitude_deg": 74.33069561643855,
      "height_km": 579.1117449902183,
      "semi_major_axis_km": 6954.144210180828,
      "eccentricity": 0.0004365,
      "inclination_deg": 97.6981,
      "raan_deg": 342.8673,
      "arg_perigee_deg": 91.1634,
      "mean_anomaly_deg": 269.0088,
      "mean_motion_rev_day": 14.97053163
    },
    {
      "epoch": "2026-03-30T05:23:40.089120Z",
      "apogee_km": 579.0427636700133,
      "perigee_km": 572.9716566916422,
      "latitude_deg": 1.2744879158228751e-05,
      "longitude_deg": 74.33069215823967,
      "height_km": 579.1117464000135,
      "semi_major_axis_km": 6954.144210180828,
      "eccentricity": 0.00043651,
      "inclination_deg": 97.6981,
      "raan_deg": 342.8673,
      "arg_perigee_deg": 91.1634,
      "mean_anomaly_deg": 269.0088,
      "mean_motion_rev_day": 14.97053163
    }
  ]
}